satname,norad_id,inclination_deg,eccentricity,mean_motion_rev_per_day,perigee_km,apogee_km,l1,l2
STARLINK-1267,45384,53.0548,0.0001639,15.06416937,546.0245928382474,548.2947050797766,1 45384U 20019AA  25325.85444594  .00007576  00000+0  52669-3 0  9991,2 45384  53.0548 271.3668 0001639  88.7465 271.3711 15.06416937313743
STARLINK-1272,45386,53.0531,0.0007511,15.37354733,448.8036502913128,459.06678917980025,1 45386U 20019AC  25325.84601918  .00074402  00000+0  19920-2 0  9991,2 45386  53.0531 264.2612 0007511  81.6872 278.4982 15.37354733313844
STARLINK-1274,45387,53.0343,0.0004079,15.31601351,468.2403016621638,473.8278554280405,1 45387U 20019AD  25325.81441413  .00044175  00000+0  14309-2 0  9991,2 45387  53.0343 252.5180 0004079  42.1538 317.9775 15.31601351314006
STARLINK-1280,45388,53.0533,0.0008088,15.43337963,430.75453186772484,441.77751019454445,1 45388U 20019AE  25325.91670139  .00130398  00000+0  28380-2 0  9999,2 45388  53.0533 282.5500 0008088  71.2174 349.4108 15.43337963  5779
STARLINK-1283,45389,53.0522,0.000891,15.33506119,459.263776359704,471.4588903897775,1 45389U 20019AF  25325.80155771  .00082771  00000+0  25010-2 0  9996,2 45389  53.0522 263.6108 0008910  77.8145 282.3853 15.33506119313859
STARLINK-1284,45390,53.0558,8.9e-05,15.06406538,546.5751657441169,547.8078742206735,1 45390U 20019AG  25325.27565166 -.00000935  00000+0 -43904-4 0  9990,2 45390  53.0558 273.3111 0000890  81.8154 278.2936 15.06406538313665
STARLINK-1297,45395,53.0549,0.0001591,15.06415757,546.0614501514228,548.2650806958809,1 45395U 20019AM  25325.84330446  .00006794  00000+0  47436-3 0  9999,2 45395  53.0549 270.7592 0001591  84.1666 275.9504 15.06415757312934
STARLINK-1307,45397,53.0547,0.0002013,15.06383069,545.8693663903059,548.6575326112752,1 45397U 20019AP  25325.83595073 -.00000839  00000+0 -37429-4 0  9997,2 45397  53.0547 270.7918 0002013  92.5226 267.5993 15.06383069313571
STARLINK-1255,45399,53.049,0.0006336,15.3332906,461.55177774688855,470.2245264196081,1 45399U 20019AR  25325.80964741  .00045522  00000+0  13959-2 0  9994,2 45399  53.0490 254.6465 0006336  87.0470 273.1256 15.33329060313789
STARLINK-1260,45404,53.0533,0.0001531,15.06401351,546.1471470906599,548.2676875512434,1 45404U 20019AW  25325.23973843  .00004810  00000+0  34155-3 0  9998,2 45404  53.0533 263.4669 0001531  90.6865 269.4300 15.06401351313511
STARLINK-1263,45405,53.0561,0.0001816,15.06410323,545.9222820581354,548.4375571633373,1 45405U 20019AX  25325.82211008  .00002706  00000+0  20044-3 0  9996,2 45405  53.0561 260.8567 0001816  85.8740 274.2456 15.06410323313600
STARLINK-1265,45406,53.056,0.0001508,15.06389143,546.2004856989779,548.2891808598943,1 45406U 20019AY  25325.23236618 -.00000303  00000+0 -14411-5 0  9992,2 45406  53.0560 263.5032 0001508  90.1162 270.0000 15.06389143313516
STARLINK-1278,45408,53.0536,0.0007104,15.36249881,452.35469115711294,462.06635291642215,1 45408U 20019BA  25325.32585350  .00122328  00000+0  33660-2 0  9998,2 45408  53.0536 286.7689 0007104  62.2065 297.9657 15.36249881313205
STARLINK-1296,45412,53.0541,0.0001184,15.06404278,546.3784867985851,548.0184062323196,1 45412U 20019BE  25325.83315648 -.00003054  00000+0 -18620-3 0  9996,2 45412  53.0541 260.8035 0001184  93.5398 266.5726 15.06404278313605
STARLINK-1298,45413,53.0461,0.0008173,15.55754121,394.4216384334377,405.5011180425063,1 45413U 20019BF  25325.27778593  .00050156  00000+0  71622-3 0  9991,2 45413  53.0461 232.3314 0008173  37.3264 322.8312 15.55754121314050
STARLINK-1309,45414,53.0555,9.85e-05,15.06392077,546.5536916737592,547.9179901234156,1 45414U 20019BG  25325.84792913  .00011400  00000+0  78312-3 0  9999,2 45414  53.0555 260.7397 0000985  99.2118 260.8982 15.06392077313595
STARLINK-1316,45415,53.0572,0.0001516,15.06414985,546.1157555732989,548.2155073311542,1 45415U 20019BH  25325.80737311  .00001737  00000+0  13540-3 0  9991,2 45415  53.0572 260.9193 0001516  85.2936 274.8226 15.06414985313628
STARLINK-1318,45416,53.0495,0.0005914,15.63203811,374.4136970069703,382.405340229192,1 45416U 20019BJ  25325.10259137  .00052557  00000+0  56569-3 0  9994,2 45416  53.0495 223.6111 0005914 107.9062 252.2597 15.63203811314075
STARLINK-1286,45417,53.0542,0.0004644,15.38437533,447.55776875191714,453.9004195801781,1 45417U 20019BK  25325.33346519  .00079528  00000+0  20548-2 0  9995,2 45417  53.0542 286.9248 0004644  69.7965 290.3537 15.38437533313470
STARLINK-1308,45419,53.0542,0.0001296,15.06401711,546.3087894811788,548.1038384681606,1 45419U 20019BM  25325.31068804  .00001430  00000+0  11485-3 0  9991,2 45419  53.0542 293.1483 0001296  98.7718 261.3418 15.06401711313134
STARLINK-1329,45531,53.0546,0.0001554,15.06398128,546.1410952971037,548.2934954121001,1 45531U 20025A   25325.14667850  .00006609  00000+0  46219-3 0  9996,2 45531  53.0546 233.8874 0001554  84.9968 275.1199 15.06398128308735
STARLINK-1338,45532,53.0532,0.0001397,15.06394876,546.2597889173576,548.1947356922456,1 45532U 20025B   25325.02504205  .00004257  00000+0  30458-3 0  9993,2 45532  53.0532 234.4319 0001397  98.3203 261.7944 15.06394876308711
STARLINK-1350,45535,53.072,0.0002283,15.33008357,465.2799163430591,468.4053340399214,1 45535U 20025E   25325.87388818  .00012141  00000+0  38633-3 0  9993,2 45535  53.0720 178.3011 0002283  97.6459 262.4801 15.33008357309603
STARLINK-1362,45538,53.0538,0.0001491,15.06392494,546.2019899427178,548.2671357427571,1 45538U 20025H   25325.05722954  .00001016  00000+0  87099-4 0  9999,2 45538  53.0538 234.0065 0001491 102.9552 257.1604 15.06392494308728
STARLINK-1368,45540,53.0544,0.0001739,15.06388675,546.0419434993883,548.4505917998767,1 45540U 20025K   25325.12824316  .00002072  00000+0  15799-3 0  9995,2 45540  53.0544 233.9703 0001739  91.5015 268.6173 15.06388675308721
STARLINK-1371,45542,53.0538,0.0001742,15.06390541,546.0341477936709,548.4469493315901,1 45542U 20025M   25324.96605838  .00001298  00000+0  10607-3 0  9996,2 45542  53.0538 234.6942 0001742  88.0502 272.0687 15.06390541308707
STARLINK-1372,45543,53.0544,0.0001622,15.06399261,546.0905309642994,548.3371147712369,1 45543U 20025N   25325.06927338  .00005561  00000+0  39191-3 0  9997,2 45543  53.0544 234.2347 0001622  81.2432 278.8740 15.06399261307817
STARLINK-1373,45544,53.0532,0.0001091,15.0638587,546.4993044392595,548.0104249441356,1 45544U 20025P   25325.15404245  .00011271  00000+0  77461-3 0  9992,2 45544  53.0532 233.8522 0001091  80.9453 279.1660 15.06385870308732
STARLINK-1294,45551,53.0461,0.0006349,15.63717931,372.63969910765536,381.21728126709604,1 45551U 20025W   25325.80581979  .00075741  00000+0  79412-3 0  9992,2 45551  53.0461 155.6547 0006349 129.4365 230.7212 15.63717931309895
STARLINK-1325,45554,53.0509,0.0003865,15.69522672,357.6584732192887,362.86725631475383,1 45554U 20025Z   25325.91670139  .00281972  00000+0  22710-2 0  9997,2 45554  53.0509 147.5673 0003865 270.1313  60.7645 15.69522672  5782
STARLINK-1327,45555,53.0532,0.0001441,15.06414029,546.170624876112,548.1664979389088,1 45555U 20025AA  25325.85621125  .00006279  00000+0  43990-3 0  9991,2 45555  53.0532 210.7018 0001441  90.1462 269.9692 15.06414029309114
STARLINK-1356,45564,53.0528,0.0001386,15.06415212,546.205088893249,548.1247825898372,1 45564U 20025AK  25325.85989748  .00006514  00000+0  45564-3 0  9990,2 45564  53.0528 210.6832 0001386  94.3038 265.8109 15.06415212309118
STARLINK-1357,45565,53.0593,0.000975,15.35770417,451.9672503808697,465.29895207826576,1 45565U 20025AL  25325.82588756  .00068798  00000+0  19394-2 0  9995,2 45565  53.0593 191.7440 0009750  83.4938 276.7174 15.35770417309381
STARLINK-1361,45567,53.0525,0.0001541,15.06402236,546.1375097720675,548.2719000855277,1 45567U 20025AN  25325.08217434  .00007644  00000+0  53148-3 0  9996,2 45567  53.0525 214.1735 0001541  91.9513 268.1652 15.06402236309002
STARLINK-1363,45568,53.0528,0.0006784,15.44906153,427.03407483313276,436.2735990406891,1 45568U 20025AP  25325.85347034  .00069687  00000+0  14541-2 0  9990,2 45568  53.0528 202.7891 0006784 130.1845 229.9756 15.44906153309223
STARLINK-1366,45569,53.0512,0.0004955,15.42818269,434.4189152371446,441.1735050483958,1 45569U 20025AQ  25325.83630780  .00018662  00000+0  42765-3 0  9999,2 45569  53.0512 202.5610 0004955 129.2410 230.9035 15.42818269309229
STARLINK-1376,45570,53.0546,0.0001303,15.06396422,546.320149668677,548.1248983606347,1 45570U 20025AR  25325.14483007  .00000605  00000+0  59509-4 0  9996,2 45570  53.0546 213.8968 0001303  86.8863 273.2275 15.06396422309007
STARLINK-1320,45572,53.0551,0.0009836,15.45192383,424.11556835012743,437.5101344978493,1 45572U 20025AT  25325.81904024  .00023355  00000+0  49101-3 0  9992,2 45572  53.0551 148.5351 0009836  92.7687 267.4445 15.45192383310003
STARLINK-1321,45573,53.0545,0.0001408,15.06374757,546.3138252077351,548.2640251482662,1 45573U 20025AU  25325.06467851 -.00001267  00000+0 -66239-4 0  9994,2 45573  53.0545 204.2560 0001408  91.6474 268.4676 15.06374757308837
STARLINK-1328,45576,53.0505,0.0008891,15.76265068,335.05967666753895,347.0077059908599,1 45576U 20025AX  25325.91670139  .00197623  00000+0  12055-2 0  9991,2 45576  53.0505 166.6425 0008891 115.3812 100.5554 15.76265068  5803
STARLINK-1331,45578,53.0546,0.0001966,15.06404739,545.8355129528854,548.5585542949057,1 45578U 20025AZ  25325.83870220 -.00000144  00000+0  92405-5 0  9999,2 45578  53.0546 200.7809 0001966  88.2644 271.8570 15.06404739309263
STARLINK-1333,45580,53.0536,0.0001758,15.06386448,546.0356095994384,548.4705767561991,1 45580U 20025BB  25325.84516547  .00010457  00000+0  72013-3 0  9990,2 45580  53.0536 210.7492 0001758  92.2021 267.9169 15.06386448309117
STARLINK-1335,45581,53.053,0.0001293,15.06416015,546.2670334826307,548.0579159267891,1 45581U 20025BC  25325.84976097  .00003523  00000+0  25520-3 0  9998,2 45581  53.0530 200.7323 0001293  89.2271 270.8867 15.06416015309258
